NORAD_CAT_ID,OBJECT_NAME,OBJECT_TYPE,EPOCH,MEAN_MOTION,ECCENTRICITY,INCLINATION,RA_OF_ASC_NODE,ARG_OF_PERICENTER,MEAN_ANOMALY,BSTAR,MEAN_MOTION_DOT,MEAN_MOTION_DDOT,TLE_LINE0,TLE_LINE1,TLE_LINE2,SEMIMAJOR_AXIS,PERIOD,APOGEE,PERIGEE,DECAYED
54206.0,STARLINK-5264,PAYLOAD,2023-06-21 02:23:45,15.0884727,0.000111,53.2184,94.861,86.9377,273.1742,2.8603e-05,1.68e-06,0.0,0 STARLINK-5264,1 54206U 22141BB  23172.09982855  .00000168  00000-0  28603-4 0  9996,2 54206  53.2184  94.8610 0001110  86.9377 273.1742 15.08847270 36875,6917.858,95.437,540.491,538.955,0.0
54206.0,STARLINK-5264,PAYLOAD,2023-06-21 03:59:08,15.08850472,0.0001151,53.2187,94.5637,88.6103,271.5021,5.4643e-05,5.82e-06,0.0,0 STARLINK-5264,1 54206U 22141BB  23172.16606531  .00000582  00000-0  54643-4 0  9991,2 54206  53.2187  94.5637 0001151  88.6103 271.5021 15.08850472 36651,6917.848,95.437,540.51,538.917,0.0
54206.0,STARLINK-5264,PAYLOAD,2023-06-22 02:14:33,15.08837386,0.000124,53.2183,90.4009,90.2592,269.8542,-4.5827e-05,-1.017e-05,0.0,0 STARLINK-5264,1 54206U 22141BB  23173.09343870 -.00001017  00000-0 -45827-4 0  9998,2 54206  53.2183  90.4009 0001240  90.2592 269.8542 15.08837386 37024,6917.888,95.438,540.611,538.896,0.0
54206.0,STARLINK-5264,PAYLOAD,2023-06-23 00:29:56,15.08842428,0.0001128,53.2184,86.2373,88.0551,272.0571,1.8761e-05,1.1e-07,0.0,0 STARLINK-5264,1 54206U 22141BB  23174.02079349  .00000011  00000-0  18761-4 0  9997,2 54206  53.2184  86.2373 0001128  88.0551 272.0571 15.08842428 37163,6917.873,95.437,540.518,538.958,0.0
54206.0,STARLINK-5264,PAYLOAD,2023-06-24 03:31:29,15.08845557,0.0001255,53.2186,81.1826,93.4976,266.616,7.3313e-05,8.79e-06,0.0,0 STARLINK-5264,1 54206U 22141BB  23175.14686825  .00000879  00000-0  73313-4 0  9990,2 54206  53.2186  81.1826 0001255  93.4976 266.6160 15.08845557 37332,6917.863,95.437,540.597,538.86,0.0
54206.0,STARLINK-5264,PAYLOAD,2023-06-25 03:22:16,15.08845084,0.0001097,53.2191,76.7215,104.5397,255.5717,-2.7336e-05,-7.23e-06,0.0,0 STARLINK-5264,1 54206U 22141BB  23176.14047180 -.00000723  00000-0 -27336-4 0  9990,2 54206  53.2191  76.7215 0001097 104.5397 255.5717 15.08845084 37481,6917.865,95.437,540.489,538.971,0.0
54206.0,STARLINK-5264,PAYLOAD,2023-06-26 15:56:09,15.08827524,0.0001049,53.2179,69.8845,98.0309,262.0802,-2.8118e-06,-3.32e-06,0.0,0 STARLINK-5264,1 54206U 22141BB  23177.66400395 -.00000332  00000-0 -28118-5 0  9995,2 54206  53.2179  69.8845 0001049  98.0309 262.0802 15.08827524 37719,6917.919,95.438,540.509,539.058,0.0
54206.0,STARLINK-5264,PAYLOAD,2023-06-27 09:25:23,15.08841034,7.95e-05,53.2194,66.614,89.3424,270.7659,-3.7901e-05,-8.91e-06,0.0,0 STARLINK-5264,1 54206U 22141BB  23178.39263881 -.00000891  00000-0 -37901-4 0  9992,2 54206  53.2194  66.6140 0000795  89.3424 270.7659 15.08841034 37827,6917.877,95.437,540.292,539.192,0.0
54206.0,STARLINK-5264,PAYLOAD,2023-06-29 01:10:02,15.08837986,9.11e-05,53.2197,59.1793,97.359,262.7506,3.2567e-05,2.31e-06,0.0,0 STARLINK-5264,1 54206U 22141BB  23180.04864358  .00000231  00000-0  32567-4 0  9992,2 54206  53.2197  59.1793 0000911  97.3590 262.7506 15.08837986 38075,6917.887,95.438,540.382,539.121,0.0
54206.0,STARLINK-5264,PAYLOAD,2023-07-01 00:51:37,15.08839345,8.71e-05,53.2186,50.2602,93.0213,267.0879,-1.7913e-05,-5.73e-06,0.0,0 STARLINK-5264,1 54206U 22141BB  23182.03584500 -.00000573  00000-0 -17913-4 0  9990,2 54206  53.2186  50.2602 0000871  93.0213 267.0879 15.08839345 38379,6917.882,95.438,540.35,539.145,0.0
54206.0,STARLINK-5264,PAYLOAD,2023-07-03 00:33:10,15.08841861,0.0001016,53.2196,41.3391,86.5246,273.5862,2.2323e-05,6.8e-07,0.0,0 STARLINK-5264,1 54206U 22141BB  23184.02304317  .00000068  00000-0  22323-4 0  9995,2 54206  53.2196  41.3391 0001016  86.5246 273.5862 15.08841861 38674,6917.875,95.437,540.443,539.037,0.0
54206.0,STARLINK-5264,PAYLOAD,2023-07-03 14:51:39,15.0882459,9.79e-05,53.2195,38.663,90.0632,270.0472,0.00013297,1.828e-05,0.0,0 STARLINK-5264,1 54206U 22141BB  23184.61921009  .00001828  00000-0  13297-3 0  9997,2 54206  53.2195  38.6630 0000979  90.0632 270.0472 15.08824590 38763,6917.927,95.439,540.47,539.115,0.0
54206.0,STARLINK-5264,PAYLOAD,2023-07-04 00:23:57,15.08846146,9.95e-05,53.2195,36.8786,90.8896,269.221,4.4449e-07,-2.81e-06,0.0,0 STARLINK-5264,1 54206U 22141BB  23185.01664130 -.00000281  00000-0  44449-6 0  9990,2 54206  53.2195  36.8786 0000995  90.8896 269.2210 15.08846146 38821,6917.862,95.437,540.415,539.038,0.0
54206.0,STARLINK-5264,PAYLOAD,2023-07-04 14:42:27,15.08832395,9.92e-05,53.2192,34.2025,97.4208,262.6897,-5.7951e-05,-1.21e-05,0.0,0 STARLINK-5264,1 54206U 22141BB  23185.61281266 -.00001210  00000-0 -57951-4 0  9995,2 54206  53.2192  34.2025 0000992  97.4208 262.6897 15.08832395 38912,6917.904,95.438,540.455,539.082,0.0
54206.0,STARLINK-5264,PAYLOAD,2023-07-05 00:14:45,15.08841766,9.34e-05,53.2197,32.4178,92.2,267.9099,2.4593e-06,-2.49e-06,0.0,0 STARLINK-5264,1 54206U 22141BB  23186.01024494 -.00000249  00000-0  24593-5 0  9995,2 54206  53.2197  32.4178 0000934  92.2000 267.9099 15.08841766 38975,6917.875,95.437,540.386,539.094,0.0
54206.0,STARLINK-5264,PAYLOAD,2023-07-05 06:36:18,15.08836108,9.23e-05,53.2196,31.2285,91.2664,268.8434,-3.7065e-05,-8.77e-06,0.0,0 STARLINK-5264,1 54206U 22141BB  23186.27520989 -.00000877  00000-0 -37065-4 0  9998,2 54206  53.2196  31.2285 0000923  91.2664 268.8434 15.08836108 39016,6917.892,95.438,540.396,539.119,0.0
54206.0,STARLINK-5264,PAYLOAD,2023-07-06 15:59:24,15.08838851,8.76e-05,53.2196,24.9843,93.4148,266.6945,4.5553e-06,-2.15e-06,0.0,0 STARLINK-5264,1 54206U 22141BB  23187.66625123 -.00000215  00000-0  45553-5 0  9995,2 54206  53.2196  24.9843 0000876  93.4148 266.6945 15.08838851 39226,6917.884,95.438,540.355,539.143,0.0
54206.0,STARLINK-5264,PAYLOAD,2023-07-07 01:31:42,15.0884621,9.21e-05,53.2195,23.2001,90.1056,270.0042,6.3069e-05,7.16e-06,0.0,0 STARLINK-5264,1 54206U 22141BB  23188.06368402  .00000716  00000-0  63069-4 0  9990,2 54206  53.2195  23.2001 0000921  90.1056 270.0042 15.08846210 39287,6917.861,95.437,540.364,539.089,0.0
54206.0,STARLINK-5264,PAYLOAD,2023-07-07 19:00:57,15.08832116,9.48e-05,53.2192,19.9298,86.629,273.481,3.4288e-05,2.58e-06,0.0,0 STARLINK-5264,1 54206U 22141BB  23188.79233554  .00000258  00000-0  34288-4 0  9991,2 54206  53.2192  19.9298 0000948  86.6290 273.4810 15.08832116 39395,6917.904,95.438,540.425,539.114,0.0
54206.0,STARLINK-5264,PAYLOAD,2023-07-08 01:22:29,15.08844024,9.2e-05,53.2196,18.74,84.5547,275.5551,6.2265e-05,7.03e-06,0.0,0 STARLINK-5264,1 54206U 22141BB  23189.05728692  .00000703  00000-0  62265-4 0  9994,2 54206  53.2196  18.7400 0000920  84.5547 275.5551 15.08844024 39434,6917.868,95.437,540.37,539.097,0.0
54206.0,STARLINK-5264,PAYLOAD,2023-07-08 06:08:40,15.08830679,0.0001,53.2195,17.8473,89.9413,270.1694,-4.2661e-05,-9.66e-06,0.0,0 STARLINK-5264,1 54206U 22141BB  23189.25601876 -.00000966  00000-0 -42661-4 0  9991,2 54206  53.2195  17.8473 0001000  89.9413 270.1694 15.08830679 39467,6917.909,95.438,540.466,539.082,0.0
54206.0,STARLINK-5264,PAYLOAD,2023-07-08 18:51:44,15.0884331,9.81e-05,53.2189,15.469,82.8908,277.2196,1.2814e-05,-8.4e-07,0.0,0 STARLINK-5264,1 54206U 22141BB  23189.78592906 -.00000084  00000-0  12814-4 0  9999,2 54206  53.2189  15.4690 0000981  82.8908 277.2196 15.08843310 39543,6917.87,95.437,540.414,539.057,0.0
54206.0,STARLINK-5264,PAYLOAD,2023-07-09 12:20:59,15.08831338,9.42e-05,53.2192,12.1989,83.9883,276.1216,-3.4556e-06,-3.43e-06,0.0,0 STARLINK-5264,1 54206U 22141BB  23190.51457732 -.00000343  00000-0 -34556-5 0  9996,2 54206  53.2192  12.1989 0000942  83.9883 276.1216 15.08831338 39653,6917.907,95.438,540.424,539.12,0.0
54206.0,STARLINK-5264,PAYLOAD,2023-07-10 18:33:18,15.08843156,9.72e-05,53.2196,6.549,85.0398,275.0705,2.2049e-05,6.3e-07,0.0,0 STARLINK-5264,1 54206U 22141BB  23191.77313047  .00000063  00000-0  22049-4 0  9995,2 54206  53.2196   6.5490 0000972  85.0398 275.0705 15.08843156 39841,6917.871,95.437,540.408,539.063,0.0
54206.0,STARLINK-5264,PAYLOAD,2023-07-11 10:27:10,15.08833609,9.9e-05,53.2195,3.576,85.1547,274.9558,2.1584e-05,5.6e-07,0.0,0 STARLINK-5264,1 54206U 22141BB  23192.43553685  .00000056  00000-0  21584-4 0  9998,2 54206  53.2195   3.5760 0000990  85.1547 274.9558 15.08833609 39941,6917.9,95.438,540.45,539.08,0.0
54206.0,STARLINK-5264,PAYLOAD,2023-07-11 23:10:14,15.08841962,0.0001025,53.2197,1.1968,85.1757,274.9352,6.4851e-05,7.45e-06,0.0,0 STARLINK-5264,1 54206U 22141BB  23192.96545071  .00000745  00000-0  64851-4 0  9995,2 54206  53.2197   1.1968 0001025  85.1757 274.9352 15.08841962 40024,6917.874,95.437,540.448,539.03,0.0
54206.0,STARLINK-5264,PAYLOAD,2023-07-12 11:53:20,15.08832176,0.0001063,53.2195,358.8177,89.3249,270.7865,-3.3074e-05,-8.14e-06,0.0,0 STARLINK-5264,1 54206U 22141BB  23193.49538094 -.00000814  00000-0 -33074-4 0  9993,2 54206  53.2195 358.8177 0001063  89.3249 270.7865 15.08832176 40109,6917.904,95.438,540.505,539.034,0.0
54206.0,STARLINK-5264,PAYLOAD,2023-07-12 18:14:53,15.08839727,9.85e-05,53.2196,357.6295,89.2661,270.8444,-3.234e-05,-8.02e-06,0.0,0 STARLINK-5264,1 54206U 22141BB  23193.76033670 -.00000802  00000-0 -32340-4 0  9995,2 54206  53.2196 357.6295 0000985  89.2661 270.8444 15.08839727 40144,6917.881,95.438,540.428,539.065,0.0
54206.0,STARLINK-5264,PAYLOAD,2023-07-13 21:16:26,15.08839782,0.0001041,53.2199,352.5742,93.9048,266.2063,2.5098e-05,1.12e-06,0.0,0 STARLINK-5264,1 54206U 22141BB  23194.88641748  .00000112  00000-0  25098-4 0  9994,2 54206  53.2199 352.5742 0001041  93.9048 266.2063 15.08839782 40319,6917.881,95.438,540.466,539.026,0.0
54206.0,STARLINK-5264,PAYLOAD,2023-07-14 19:31:49,15.08845004,0.00013,53.2201,348.4096,98.5587,261.5552,0.00010291,1.351e-05,0.0,0 STARLINK-5264,1 54206U 22141BB  23195.81377197  .00001351  00000-0  10291-3 0  9996,2 54206  53.2201 348.4096 0001300  98.5587 261.5552 15.08845004 40456,6917.865,95.437,540.629,538.831,0.0
